# Auto-generated by tools/gen-layouts.py - do not edit by hand.
apiVersion: int.esa.yass/v1
kind: Layout
metadata:
  name: uc2nr-n08
  annotations:
    yass.experiments/source-tles: "tools/tle-snapshot.txt"
    yass.experiments/sat-selection: "even-stride across mixed-constellation snapshot"
spec:
  - fsNode: orbcomm-fm06
    nodeType: satellite
    orbit:
      tle:
        - "1 25118U 97084G   26160.12865578  .00001153  00000+0  34963-3 0  9999"
        - "2 25118  45.0138  91.5055 0001849 306.1714  72.9851 14.47542159493223"
    hardwareSpecRef: oneweb
  - fsNode: globalstar-m081
    nodeType: satellite
    orbit:
      tle:
        - "1 37743U 11033E   26160.46457311 -.00000096  00000+0  45147-4 0  9998"
        - "2 37743  51.9940 219.1569 0000216 129.5643 332.5715 12.62264813688964"
    hardwareSpecRef: oneweb
  - fsNode: iridium-116
    nodeType: satellite
    orbit:
      tle:
        - "1 43072U 17083C   26160.54045301  .00000121  00000+0  36100-4 0  9999"
        - "2 43072  86.3958 325.1993 0001882  95.0586 265.0824 14.34217693443076"
    hardwareSpecRef: oneweb
  - fsNode: oneweb-0173
    nodeType: satellite
    orbit:
      tle:
        - "1 48069U 21025AD  26160.43945678  .00000405  00000+0  10739-2 0  9998"
        - "2 48069  87.8951 321.7652 0001765 107.5978 252.5344 13.13470042252783"
    hardwareSpecRef: oneweb
  - fsNode: oneweb-0614
    nodeType: satellite
    orbit:
      tle:
        - "1 55156U 23004S   26160.37290236  .00000543  00000+0  14955-2 0  9995"
        - "2 55156  87.8890  22.6332 0002048  82.9645 277.1716 13.11418109164810"
    hardwareSpecRef: oneweb
  - fsNode: flock-4be-17
    nodeType: satellite
    orbit:
      tle:
        - "1 60492U 24149AA  26160.48683624  .00013804  00000+0  35282-3 0  9995"
        - "2 60492  97.3767 243.7970 0001542 282.6686  77.4387 15.39567880101071"
    hardwareSpecRef: oneweb
  - fsNode: flock-4h-9
    nodeType: satellite
    orbit:
      tle:
        - "1 66712U 25276AY  26160.50357957  .00006093  00000+0  28301-3 0  9994"
        - "2 66712  97.4215 234.3639 0003536  31.9574 328.1875 15.20362333 29269"
    hardwareSpecRef: oneweb
  - fsNode: lemur-2-squirrelcomm
    nodeType: satellite
    orbit:
      tle:
        - "1 60578U 24149DQ  26160.22177735  .00005305  00000+0  35767-3 0  9998"
        - "2 60578  97.6716 241.1591 0006956  83.9423 276.2596 15.07063859 99203"
    hardwareSpecRef: oneweb
  - fsNode: estrack-new-norcia
    nodeType: groundStation
    earthPosition:
      lat: -31.048
      lng: 116.192
      heightOverSeaLevel: 0
    hardwareSpecRef: ground-station-hwdef
  - fsNode: estrack-kiruna
    nodeType: groundStation
    earthPosition:
      lat: 67.857
      lng: 20.964
      heightOverSeaLevel: 0
    hardwareSpecRef: ground-station-hwdef
  - fsNode: estrack-redu
    nodeType: groundStation
    earthPosition:
      lat: 50.0
      lng: 5.167
      heightOverSeaLevel: 0
    hardwareSpecRef: ground-station-hwdef
  - fsNode: estrack-cebreros
    nodeType: groundStation
    earthPosition:
      lat: 40.453
      lng: -4.368
      heightOverSeaLevel: 0
    hardwareSpecRef: ground-station-hwdef
  - fsNode: estrack-santa-maria
    nodeType: groundStation
    earthPosition:
      lat: 36.974
      lng: -25.094
      heightOverSeaLevel: 0
    hardwareSpecRef: ground-station-hwdef
  - fsNode: estrack-kourou
    nodeType: groundStation
    earthPosition:
      lat: 5.251
      lng: -52.805
      heightOverSeaLevel: 0
    hardwareSpecRef: ground-station-hwdef
  - fsNode: estrack-malargue
    nodeType: groundStation
    earthPosition:
      lat: -35.776
      lng: -69.398
      heightOverSeaLevel: 0
    hardwareSpecRef: ground-station-hwdef
